<?xml version="1.0" encoding="UTF-8"?>
<kml xmlns="http://www.opengis.net/kml/2.2" xmlns:gx="http://www.google.com/kml/ext/2.2" xmlns:kml="http://www.opengis.net/kml/2.2" xmlns:atom="http://www.w3.org/2005/Atom">
<Document>
	<name>Untitled map</name>
	<gx:CascadingStyle kml:id="__managed_style_11924CB4543B31AF55F9">
		<Style>
			<IconStyle>
				<Icon>
					<href>https://earth.google.com/earth/document/icon?color=1976d2&amp;id=2000&amp;scale=4</href>
				</Icon>
				<hotSpot x="64" y="128" xunits="pixels" yunits="insetPixels"/>
			</IconStyle>
			<LabelStyle>
			</LabelStyle>
			<LineStyle>
				<color>ff2dc0fb</color>
				<width>4</width>
			</LineStyle>
			<PolyStyle>
				<color>40ffffff</color>
			</PolyStyle>
			<BalloonStyle>
				<displayMode>hide</displayMode>
			</BalloonStyle>
		</Style>
	</gx:CascadingStyle>
	<gx:CascadingStyle kml:id="__managed_style_2CFFE2F3173B31AF55F9">
		<Style>
			<IconStyle>
				<scale>1.2</scale>
				<Icon>
					<href>https://earth.google.com/earth/document/icon?color=1976d2&amp;id=2000&amp;scale=4</href>
				</Icon>
				<hotSpot x="64" y="128" xunits="pixels" yunits="insetPixels"/>
			</IconStyle>
			<LabelStyle>
			</LabelStyle>
			<LineStyle>
				<color>ff2dc0fb</color>
				<width>6</width>
			</LineStyle>
			<PolyStyle>
				<color>40ffffff</color>
			</PolyStyle>
			<BalloonStyle>
				<displayMode>hide</displayMode>
			</BalloonStyle>
		</Style>
	</gx:CascadingStyle>
	<StyleMap id="__managed_style_0DE40EC7C03B31AF55F9">
		<Pair>
			<key>normal</key>
			<styleUrl>#__managed_style_11924CB4543B31AF55F9</styleUrl>
		</Pair>
		<Pair>
			<key>highlight</key>
			<styleUrl>#__managed_style_2CFFE2F3173B31AF55F9</styleUrl>
		</Pair>
	</StyleMap>
	<Placemark id="07E50625F33B31AF55F6">
		<name>Untitled path</name>
		<LookAt>
			<longitude>0.4371187251691211</longitude>
			<latitude>51.21825978962401</latitude>
			<altitude>10.63102373604565</altitude>
			<heading>22.7289216572586</heading>
			<tilt>3.408785876839874</tilt>
			<gx:fovy>30</gx:fovy>
			<range>61.94245877537469</range>
			<altitudeMode>absolute</altitudeMode>
		</LookAt>
		<styleUrl>#__managed_style_0DE40EC7C03B31AF55F9</styleUrl>
		<LineString>
			<coordinates>
				0.4372832860843157,51.21820229119592,0 0.4372629933053784,51.21821827307244,0 0.4372831321546666,51.21820204133235,0 0.4372549597359487,51.2182085476672,0 0.4372787118833377,51.21819197724562,0 0.4372550133448989,51.21820899109457,0 0.4372267405972528,51.21821569098639,0 0.4371984678413775,51.21822239087142,0 0.437164387719462,51.21821821511053,0 0.4371979491230382,51.21822239096633,0 0.4371699023761133,51.21822917213473,0 0.4371992687941106,51.2182338741142,0 0.437170195077273,51.21822909074962,0 0.4371416704153441,51.2182357159009,0 0.4371427133247829,51.21824817235158,0 0.4371419223049393,51.21823579062101,0 0.4371135179460883,51.21824224425401,0 0.4371363073275503,51.21822557202475,0 0.4371136495243764,51.21824249048559,0 0.4370853767355842,51.21824919034336,0 0.437051842196301,51.2182453940841,0 0.4370855158892351,51.21824930406746,0 0.437057122704092,51.21825558614336,0 0.4370764201158206,51.21826358479137,0 0.4370571039385629,51.21825589019431,0 0.4370285625369807,51.21826278976832,0 0.4370302381303848,51.2182757095374,0 0.4370289118764214,51.21826274690071,0 0.4370006629449841,51.21826924941337,0 0.437023040117559,51.21825150961796,0 0.4370007198058821,51.21826960360034,0 0.4369725277269451,51.2182764602932,0 0.4369378868982232,51.21827213343477,0 0.4369726893175496,51.21827658933287,0 0.4369443356396102,51.21828331697927,0 0.4369618935881192,51.21829275566374,0 0.436944106376016,51.21828321305374,0 0.436916044483846,51.21829028765617,0 0.4369107240068071,51.2183052916217,0 0.4369161435438775,51.21829017365858,0 0.4368882888569892,51.2182967126442,0 0.4369095307887227,51.21827871469387,0 0.4368879514397471,51.21829703033112,0 0.4368597593272188,51.21830388699689,0 0.4368315672062928,51.21831074365588,0 0.4368385215698578,51.21832216475659,0 0.436831238851957,51.21831092172199,0 0.4368245005505722,51.2182990291252,0 0.4368528978250041,51.21829217170779,0 0.4368311827144145,51.21831084491505,0 0.436852833284854,51.21829230344551,0 0.4368811660108575,51.21828557775899,0 0.4369094987285825,51.21827885206562,0 0.4369378314380289,51.21827212636544,0 0.436966164139197,51.21826540065841,0 0.4369944968320867,51.21825867494452,0 0.4370228295166977,51.2182519492238,0 0.4370511621930304,51.21824522349623,0 0.4370794948610846,51.21823849776182,0 0.4371078275208604,51.21823177202057,0 0.4371361601723576,51.21822504627249,0 0.4371644928155763,51.21821832051756,0 0.4371928254505165,51.21821159475579,0 0.4372211580771782,51.21820486898719,0 0.4372494906955615,51.21819814321174,0 0.4372778233056662,51.21819141742947,0 0.4373311433378957,51.21819917688263,0 0.4373132026893889,51.21819097485672,0 0.4372785473030483,51.21819173386757,0 0.4372829682955803,51.21820234908958,0 0.4373313103698639,51.21819942018119,0 0.4373740025871253,51.21821175588967,0 0.4373320833070782,51.21819921703749,0 0.4373401863126447,51.21821234436131,0 0.437339967129613,51.21821269089944,0 0.4372829275522651,51.21820238097437,0 0.4372880318012951,51.21821334451905,0 
			</coordinates>
		</LineString>
	</Placemark>
	<Placemark id="049A1130DC3B31BC20C0">
		<name>Untitled path</name>
		<LookAt>
			<longitude>0.4376745545562777</longitude>
			<latitude>51.21829568964092</latitude>
			<altitude>10.69916469268802</altitude>
			<heading>22.72909038140661</heading>
			<tilt>3.361707458485475</tilt>
			<gx:fovy>30</gx:fovy>
			<range>35.40103068212375</range>
			<altitudeMode>absolute</altitudeMode>
		</LookAt>
		<styleUrl>#__managed_style_0DE40EC7C03B31AF55F9</styleUrl>
		<LineString>
			<coordinates>
				0.4376244137364815,51.21840772856352,0 0.4376183187807614,51.21839501668299,0 0.4376433502923649,51.21838808684079,0 0.4376509780304402,51.21840126157327,0 0.4376435615943408,51.21838817162898,0 0.437649438913672,51.2183672793965,0 0.4376712083716283,51.21838125991564,0 0.4376435616154639,51.21838817162898,0 0.4376711306259784,51.21838113931174,0 0.4376775423169355,51.21839479457698,0 0.4376711229970009,51.21838128295897,0 0.4376973247171745,51.21837411320784,0 0.4377041065959676,51.21838832757467,0 0.4376973252243488,51.2183741129696,0 0.4377228412774192,51.21836879232162,0 0.4377306708675365,51.21838186056637,0 0.4377231637143764,51.21836864049472,0 0.4377272200038007,51.21834733110753,0 0.4377508829324173,51.21836200765206,0 0.4377230844893498,51.21836851777314,0 0.4377513207939443,51.21836180304104,0 0.4377572351316422,51.21837539355205,0 0.4377509939194368,51.21836230744108,0 0.437776083467436,51.21835614313769,0 0.4377837993882846,51.21836892653171,0 0.4377772135809987,51.21835584652484,0 0.4377657423161407,51.21833777217532,0 0.4377764925463867,51.21835574118201,0 0.4378028697212311,51.21834953357842,0 0.4378103636374637,51.21836245950536,0 0.4378023048548174,51.21834968179232,0 0.4378067298835409,51.21832692107922,0 0.4378299875341063,51.21834333752309,0 0.4378028746238694,51.21834947730014,0 0.4378301377431315,51.21834363524722,0 0.4378369278791798,51.21835599247301,0 0.4378298981020645,51.21834327920659,0 0.4378569292649925,51.21833702441822,0 0.4378634921134326,51.21834952543463,0 0.4378563647370082,51.21833717244708,0 0.437879416175746,51.21833172964239,0 0.4378880749611747,51.21834269015641,0 0.4378796916143779,51.21833180054578,0 0.4378574917220135,51.21833687734234,0 0.4378454943154453,51.21831657339804,0 0.4378793458461638,51.21833132216764,0 0.4378451513808646,51.21831670116938,0 0.437826727006938,51.21828821155255,0 0.437745836651624,51.21830967581244,0 0.4377282008083183,51.21828198699471,0 0.4378266079469362,51.21828784051576,0 0.4378089650725148,51.21826265062633,0 0.4377682898126745,51.21827250622503,0 0.4377291034102115,51.21828195624149,0 0.4376918691291132,51.21829130461538,0 0.4376536359954142,51.21830009427008,0 0.4376718547557745,51.21832857648941,0 0.4377464447121659,51.21830950467456,0 0.4376720502714182,51.21832885766912,0 0.4376874324643376,51.21835656317172,0 0.437671888165482,51.21832864481825,0 0.437654195599757,51.21829994759224,0 0.4376377917174645,51.2183037269663,0 0.4376410106053608,51.21827434896715,0 0.437654711988269,51.21829998190621,0 0.4377462320367687,51.21830947959288,0 0.4376536863530922,51.21830041029277,0 0.4376918221310477,51.21829116116665,0 0.4377285395164798,51.21828200362538,0 0.4377469293178815,51.21830958784115,0 0.4377656434590782,51.21833756274656,0 0.4378065680938792,51.21832640750697,0 0.4378459553383851,51.21831690753996,0 0.4377863039640451,51.2182987778823,0 0.4378062430798835,51.21832691008063,0 0.4377864837155188,51.2182989934987,0 0.4377653640477641,51.21833758046927,0 0.4377092454495757,51.21831892112615,0 0.4377656880905367,51.21833760397581,0 0.4377265205032632,51.21834723766333,0 0.4376872840312518,51.21835632457139,0 0.4377267304737842,51.21834773586902,0 0.4377087911050137,51.21831929335418,0 0.4376872839889856,51.21835632457139,0 0.4376967596810766,51.21837425923735,0 0.4376876923705741,51.21835663567709,0 0.437631567313912,51.2183385606128,0 0.4376872970910051,51.2183563230228,0 0.4376487223599757,51.21836678742433,0 0.437607899747785,51.21837677569552,0 0.4376489962559719,51.21836707849118,0 0.4376316086262655,51.21833914347418,0 0.4376084100086586,51.21837681572087,0 0.4376186429941775,51.21839451898061,0 0.4376084114456491,51.2183768150591,0 0.4375904561394472,51.21834921439739,0 0.4376724878583849,51.21832854175923,0 0.4375899618977435,51.21834899928,0 0.4375732992798742,51.21832024293055,0 0.4376122407673334,51.21831084405116,0 0.4376374830594254,51.21830365270705,0 0.4376537419739801,51.21830000599454,0 0.4375900681707701,51.21834942373306,0 0.4376529691442399,51.21830050459014,0 0.4376376678825022,51.21830360515127,0 0.4376226737636757,51.21827727257553,0 0.4376392335924839,51.21827427540155,0 0.4376227286232925,51.2182771838698,0 0.4376396008504879,51.21827417897304,0 0.4376228796762027,51.21827742203348,0 0.4376032110030326,51.2182616549763,0 0.4376223541379698,51.21827728008651,0 0.4376088777243448,51.21825116441649,0 0.4376412240842753,51.21827402292524,0 0.437608816376418,51.21825134553399,0 0.437578025651868,51.21824629744434,0 0.4376030585645307,51.21826142638061,0 0.43760843125902,51.21825139249389,0 0.4375786895044209,51.21824665568326,0 0.4376031850315276,51.21826163588705,0 0.4375730425577653,51.21825825774431,0 0.437577361778152,51.2182459393113,0 0.4375724102178302,51.21825849560611,0 0.4375782407176332,51.21824597433425,0 0.4375207994070252,51.21825673876627,0 0.4375732870442417,51.21825853107917,0 0.4375270965279493,51.21826975612884,0 0.4375206514388275,51.21825651211756,0 0.4375257007702404,51.21827008876434,0 0.4374805453342701,51.21828145128845,0 0.4374696164217151,51.21826255892858,0 0.437520081611722,51.21825693036511,0 0.4374696163583258,51.21826255892856,0 0.4374434056332555,51.21825985211532,0 0.4374259215213172,51.21823607902229,0 0.4374124130371659,51.21821881913188,0 0.4373736804882977,51.21821192636662,0 0.4373856726409286,51.21819798533576,0 0.4373315033062508,51.21819903930968,0 0.4373137279129335,51.21819081433271,0 0.4373857467270259,51.2181974389916,0 0.4374124130371659,51.21821881907894,0 0.4374257002731574,51.21823640520278,0 0.4374436357429468,51.218260043425,0 0.4374351697417267,51.21829287270651,0 0.437481150475182,51.21828125449539,0 0.4374352043994634,51.21829275284396,0 
			</coordinates>
		</LineString>
	</Placemark>
</Document>
</kml>
