<?xml version="1.0" encoding="UTF-8"?>
<kml xmlns="http://www.opengis.net/kml/2.2" xmlns:gx="http://www.google.com/kml/ext/2.2" xmlns:kml="http://www.opengis.net/kml/2.2" xmlns:atom="http://www.w3.org/2005/Atom">
<Document>
    <name>None_auto_metric</name>
    <GroundOverlay id="0">
        <name>auto_raw</name>
		<visibility>1</visibility>
        <color>bbffffff</color>
        <Icon>
            <href>https://raw.githubusercontent.com/LCAS/environment_template/None/config/metric/map/map.png</href>
        </Icon>
        <LatLonBox>
          <north>51.22049528405849</north>
          <south>51.21699872165467</south>
          <west>0.43244596419813397</west>
          <east>0.4383268432343629</east>
          <rotation>0.0</rotation>
        </LatLonBox>
    </GroundOverlay>
</Document>
</kml>